NORAD_CAT_ID,OBJECT_NAME,OBJECT_TYPE,EPOCH,MEAN_MOTION,ECCENTRICITY,INCLINATION,RA_OF_ASC_NODE,ARG_OF_PERICENTER,MEAN_ANOMALY,BSTAR,MEAN_MOTION_DOT,MEAN_MOTION_DDOT,TLE_LINE0,TLE_LINE1,TLE_LINE2,SEMIMAJOR_AXIS,PERIOD,APOGEE,PERIGEE,DECAYED
51777.0,STARLINK-3625,PAYLOAD,2022-12-17 23:35:10,15.08841837,0.0002822,53.2177,226.065,29.4796,330.6355,-8.4729e-06,-4.23e-06,0.0,0 STARLINK-3625,1 51777U 22017K   22351.98276391 -.00000423  00000-0 -84729-5 0  9993,2 51777  53.2177 226.0650 0002822  29.4796 330.6355 15.08841837 46275,6917.875,95.437,541.692,537.788,0.0
51777.0,STARLINK-3625,PAYLOAD,2022-12-18 09:07:29,15.08844325,0.0002877,53.2178,224.2816,29.3787,330.7367,0.00010221,1.339e-05,0.0,0 STARLINK-3625,1 51777U 22017K   22352.38020013  .00001339  00000-0  10221-3 0  9995,2 51777  53.2178 224.2816 0002877  29.3787 330.7367 15.08844325 44861,6917.8669999999975,95.437,541.722,537.742,0.0
51777.0,STARLINK-3625,PAYLOAD,2022-12-18 21:50:33,15.08847526,0.0002833999999999,53.2175,221.9023,29.542,330.5731,0.00022055,3.224e-05,0.0,0 STARLINK-3625,1 51777U 22017K   22352.91011477  .00003224  00000-0  22055-3 0  9991,2 51777  53.2175 221.9023 0002834  29.5420 330.5731 15.08847526 44949,6917.857,95.437,541.683,537.762,0.0
51777.0,STARLINK-3625,PAYLOAD,2022-12-19 01:01:20,15.08854712,0.0002942,53.2173,221.3078,29.2112,330.9044,0.00034644,5.232e-05,0.0,0 STARLINK-3625,1 51777U 22017K   22353.04259609  .00005232  00000-0  34644-3 0  9995,2 51777  53.2173 221.3078 0002942  29.2112 330.9044 15.08854712 46438,6917.835,95.437,541.736,537.665,0.0
51777.0,STARLINK-3625,PAYLOAD,2022-12-19 08:58:16,15.08843184,0.0002983,53.2173,219.8208,30.8365,329.2802,0.00018143,2.6e-05,0.0,0 STARLINK-3625,1 51777U 22017K   22353.37380249  .00002600  00000-0  18143-3 0  9998,2 51777  53.2173 219.8208 0002983  30.8365 329.2802 15.08843184 45015,6917.871,95.437,541.799,537.672,0.0
51777.0,STARLINK-3625,PAYLOAD,2022-12-19 18:30:35,15.08835961,0.0002776,53.2171,218.0371,35.8501,324.2677,6.5542e-05,7.55e-06,0.0,0 STARLINK-3625,1 51777U 22017K   22353.77124745  .00000755  00000-0  65542-4 0  9994,2 51777  53.2171 218.0371 0002776  35.8501 324.2677 15.08835961 45077,6917.893,95.438,541.678,537.837,0.0
51777.0,STARLINK-3625,PAYLOAD,2022-12-19 23:16:45,15.08837719,0.0002856999999999,53.2164,217.1445,36.3549,323.7637,4.6855e-05,4.57e-06,0.0,0 STARLINK-3625,1 51777U 22017K   22353.96996699  .00000457  00000-0  46855-4 0  9995,2 51777  53.2164 217.1445 0002857  36.3549 323.7637 15.08837719 46578,6917.887,95.438,541.729,537.776,0.0
51777.0,STARLINK-3625,PAYLOAD,2022-12-20 19:56:46,15.08826029,0.0002848,53.2148,213.2793,36.2074,323.911,-0.00015655,-2.778e-05,0.0,0 STARLINK-3625,1 51777U 22017K   22354.83109723 -.00002778  00000-0 -15655-3 0  9999,2 51777  53.2148 213.2793 0002848  36.2074 323.9110 15.08826029 46700,6917.9230000000025,95.438,541.758,537.818,0.0
51777.0,STARLINK-3625,PAYLOAD,2022-12-21 02:18:19,15.08833144,0.0002911,53.2155,212.0895,34.6579,325.4602,-8.780200000000001e-05,-1.686e-05,0.0,0 STARLINK-3625,1 51777U 22017K   22355.09605947 -.00001686  00000-0 -87802-4 0  9998,2 51777  53.2155 212.0895 0002911  34.6579 325.4602 15.08833144 45271,6917.901,95.438,541.78,537.753,0.0
51777.0,STARLINK-3625,PAYLOAD,2022-12-22 02:09:06,15.08834638,0.000274,53.2153,207.6287,38.0973,322.0212,0.00013891,1.923e-05,0.0,0 STARLINK-3625,1 51777U 22017K   22356.08966071  .00001923  00000-0  13891-3 0  9994,2 51777  53.2153 207.6287 0002740  38.0973 322.0212 15.08834638 46898,6917.897,95.438,541.6569999999998,537.866,0.0
51777.0,STARLINK-3625,PAYLOAD,2022-12-22 06:55:16,15.08837399,0.0002741,53.2153,206.7366,39.7293,320.39,0.00014103,1.957e-05,0.0,0 STARLINK-3625,1 51777U 22017K   22356.28838015  .00001957  00000-0  14103-3 0  9996,2 51777  53.2153 206.7366 0002741  39.7293 320.3900 15.08837399 45453,6917.888000000001,95.438,541.65,537.857,0.0
51777.0,STARLINK-3625,PAYLOAD,2022-12-22 19:38:21,15.08842769,0.0002738,53.2142,204.3579,41.7073,318.4128,0.00029838,4.464e-05,0.0,0 STARLINK-3625,1 51777U 22017K   22356.81830158  .00004464  00000-0  29838-3 0  9992,2 51777  53.2142 204.3579 0002738  41.7073 318.4128 15.08842769 45532,6917.871999999999,95.437,541.631,537.8430000000002,0.0
51777.0,STARLINK-3625,PAYLOAD,2022-12-23 06:46:02,15.0884956,0.0002782,53.2137,202.2764,42.5473,317.5734,0.00026864,3.991e-05,0.0,0 STARLINK-3625,1 51777U 22017K   22357.28197807  .00003991  00000-0  26864-3 0  9991,2 51777  53.2137 202.2764 0002782  42.5473 317.5734 15.08849560 47071,6917.851,95.437,541.641,537.7919999999998,0.0
51777.0,STARLINK-3625,PAYLOAD,2022-12-23 16:18:22,15.0883721,0.0002784,53.2135,200.492,42.9652,317.1557,-7.9991e-05,-1.561e-05,0.0,0 STARLINK-3625,1 51777U 22017K   22357.67942135 -.00001561  00000-0 -79991-4 0  9999,2 51777  53.2135 200.4920 0002784  42.9652 317.1557 15.08837210 45669,6917.889,95.438,541.68,537.828,0.0
51777.0,STARLINK-3625,PAYLOAD,2022-12-23 22:39:54,15.08841506,0.0002806,53.2138,199.3024,43.365,316.7563,5.1267e-05,5.28e-06,0.0,0 STARLINK-3625,1 51777U 22017K   22357.94438121  .00000528  00000-0  51267-4 0  9990,2 51777  53.2138 199.3024 0002806  43.3650 316.7563 15.08841506 47174,6917.876,95.437,541.682,537.8,0.0
51777.0,STARLINK-3625,PAYLOAD,2022-12-24 06:36:50,15.08843489,0.00028,53.2138,197.8156,43.7325,316.3888,6.117899999999999e-05,6.85e-06,0.0,0 STARLINK-3625,1 51777U 22017K   22358.27557949  .00000685  00000-0  61179-4 0  9994,2 51777  53.2138 197.8156 0002800  43.7325 316.3888 15.08843489 45750,6917.87,95.437,541.672,537.798,0.0
51777.0,STARLINK-3625,PAYLOAD,2022-12-24 20:55:18,15.08846743,0.0002821,53.2137,195.1389,44.5996,315.5223,4.9328e-05,4.97e-06,0.0,0 STARLINK-3625,1 51777U 22017K   22358.87173630  .00000497  00000-0  49328-4 0  9994,2 51777  53.2137 195.1389 0002821  44.5996 315.5223 15.08846743 45844,6917.86,95.437,541.6759999999998,537.773,0.0
51777.0,STARLINK-3625,PAYLOAD,2022-12-25 06:27:36,15.08850471,0.0002797,53.2149,193.3547,45.3692,314.7528,6.0655e-05,6.77e-06,0.0,0 STARLINK-3625,1 51777U 22017K   22359.26917370  .00000677  00000-0  60655-4 0  9991,2 51777  53.2149 193.3547 0002797  45.3692 314.7528 15.08850471 47379,6917.848000000001,95.437,541.648,537.778,0.0
51777.0,STARLINK-3625,PAYLOAD,2022-12-25 12:49:09,15.08844696,0.0002762,53.2149,192.1649,45.6648,314.457,0.00015313,2.15e-05,0.0,0 STARLINK-3625,1 51777U 22017K   22359.53413390  .00002150  00000-0  15313-3 0  9992,2 51777  53.2149 192.1649 0002762  45.6648 314.4570 15.08844696 45942,6917.866,95.437,541.6419999999998,537.82,0.0
51777.0,STARLINK-3625,PAYLOAD,2022-12-25 20:46:04,15.08848763,0.0002827,53.2149,190.678,46.7458,313.3769,0.00015546,2.187e-05,0.0,0 STARLINK-3625,1 51777U 22017K   22359.86533038  .00002187  00000-0  15546-3 0  9998,2 51777  53.2149 190.6780 0002827  46.7458 313.3769 15.08848763 45996,6917.854,95.437,541.674,537.763,0.0
51777.0,STARLINK-3625,PAYLOAD,2022-12-26 12:39:56,15.08837346,0.0002762,53.216,187.7032,48.9792,311.1438,9.8617e-05,1.281e-05,0.0,0 STARLINK-3625,1 51777U 22017K   22360.52773975  .00001281  00000-0  98617-4 0  9994,2 51777  53.2160 187.7032 0002762  48.9792 311.1438 15.08837346 46095,6917.889,95.438,541.664,537.8430000000002,0.0
51777.0,STARLINK-3625,PAYLOAD,2022-12-26 15:50:43,15.08839153,0.0002845,53.2149,187.1092,49.0347,311.0891,2.9898e-05,1.87e-06,0.0,0 STARLINK-3625,1 51777U 22017K   22360.66022014  .00000187  00000-0  29898-4 0  9999,2 51777  53.2149 187.1092 0002845  49.0347 311.0891 15.08839153 47587,6917.8830000000025,95.438,541.716,537.78,0.0
51777.0,STARLINK-3625,PAYLOAD,2022-12-27 06:09:10,15.08843563,0.0002941,53.2149,184.4332,49.1846,310.94,4.4817e-05,4.25e-06,0.0,0 STARLINK-3625,1 51777U 22017K   22361.25637674  .00000425  00000-0  44817-4 0  9992,2 51777  53.2149 184.4332 0002941  49.1846 310.9400 15.08843563 46208,6917.869000000002,95.437,541.769,537.7,0.0
51777.0,STARLINK-3625,PAYLOAD,2022-12-27 18:52:15,15.08845355,0.0002903,53.2137,182.0541,49.5119,310.6125,0.00010133,1.325e-05,0.0,0 STARLINK-3625,1 51777U 22017K   22361.78629466  .00001325  00000-0  10133-3 0  9993,2 51777  53.2137 182.0541 0002903  49.5119 310.6125 15.08845355 46286,6917.864000000001,95.437,541.737,537.721,0.0
51777.0,STARLINK-3625,PAYLOAD,2022-12-28 12:21:30,15.08844541,0.0002907999999999,53.2137,178.783,49.905,310.2197,0.00020018,2.899e-05,0.0,0 STARLINK-3625,1 51777U 22017K   22362.51493406  .00002899  00000-0  20018-3 0  9998,2 51777  53.2137 178.7830 0002908  49.9050 310.2197 15.08844541 46395,6917.8669999999975,95.437,541.743,537.72,0.0
51777.0,STARLINK-3625,PAYLOAD,2022-12-28 15:32:16,15.08845267,0.0002917,53.2138,178.1883,50.0562,310.0686,0.00019624,2.837e-05,0.0,0 STARLINK-3625,1 51777U 22017K   22362.64741344  .00002837  00000-0  19624-3 0  9992,2 51777  53.2138 178.1883 0002917  50.0562 310.0686 15.08845267 46419,6917.864000000001,95.437,541.747,537.711,0.0
51777.0,STARLINK-3625,PAYLOAD,2022-12-29 04:15:22,15.08833214,0.0002944,53.2139,175.8089,50.1036,310.0215,-1.9166e-05,-5.94e-06,0.0,0 STARLINK-3625,1 51777U 22017K   22363.17734088 -.00000594  00000-0 -19166-4 0  9990,2 51777  53.2139 175.8089 0002944  50.1036 310.0215 15.08833214 47967,6917.901,95.438,541.803,537.73,0.0
51777.0,STARLINK-3625,PAYLOAD,2022-12-29 10:36:54,15.08837032,0.0002928999999999,53.214,174.6191,49.9098,310.215,1.0447e-05,-1.22e-06,0.0,0 STARLINK-3625,1 51777U 22017K   22363.44229912 -.00000122  00000-0  10447-4 0  9994,2 51777  53.2140 174.6191 0002929  49.9098 310.2150 15.08837032 46531,6917.889,95.438,541.781,537.7280000000002,0.0
51777.0,STARLINK-3625,PAYLOAD,2022-12-30 04:06:08,15.0884516,0.0002925,53.2148,171.34799999999996,49.8691,310.2557,5.489100000000002e-05,5.85e-06,0.0,0 STARLINK-3625,1 51777U 22017K   22364.17093604  .00000585  00000-0  54891-4 0  9995,2 51777  53.2148 171.3480 0002925  49.8691 310.2557 15.08845160 48116,6917.865,95.437,541.753,537.706,0.0
